{"fetched_at":"2026-07-19T07:05:44.266Z","source":"https://celestrak.org/NORAD/elements/gp.php?NAME=WORLDVIEW&FORMAT=JSON","constellation":"worldview","records":[{"OBJECT_NAME":"WORLDVIEW-1 (WV-1)","OBJECT_ID":"2007-041A","EPOCH":"2026-07-18T20:45:32.392800","CLASSIFICATION_TYPE":"U","MEAN_MOTION":15.24581976,"ECCENTRICITY":0.0001885,"INCLINATION":97.3907,"RA_OF_ASC_NODE":319.1657,"ARG_OF_PERICENTER":190.6952,"MEAN_ANOMALY":169.4246,"EPHEMERIS_TYPE":0,"NORAD_CAT_ID":32060,"ELEMENT_SET_NO":999,"REV_AT_EPOCH":4770,"BSTAR":0.00012871,"MEAN_MOTION_DOT":0.000031,"MEAN_MOTION_DDOT":0},{"OBJECT_NAME":"WORLDVIEW-2 (WV-2)","OBJECT_ID":"2009-055A","EPOCH":"2026-07-18T19:48:31.172256","CLASSIFICATION_TYPE":"U","MEAN_MOTION":14.37907544,"ECCENTRICITY":0.0005438,"INCLINATION":98.4754,"RA_OF_ASC_NODE":272.8442,"ARG_OF_PERICENTER":121.1463,"MEAN_ANOMALY":239.0258,"EPHEMERIS_TYPE":0,"NORAD_CAT_ID":35946,"ELEMENT_SET_NO":999,"REV_AT_EPOCH":88019,"BSTAR":0.000027797,"MEAN_MOTION_DOT":4e-7,"MEAN_MOTION_DDOT":0},{"OBJECT_NAME":"WORLDVIEW-3 (WV-3)","OBJECT_ID":"2014-048A","EPOCH":"2026-07-18T20:03:15.295680","CLASSIFICATION_TYPE":"U","MEAN_MOTION":14.85067225,"ECCENTRICITY":0.0001573,"INCLINATION":97.8554,"RA_OF_ASC_NODE":274.2301,"ARG_OF_PERICENTER":150.4903,"MEAN_ANOMALY":209.6401,"EPHEMERIS_TYPE":0,"NORAD_CAT_ID":40115,"ELEMENT_SET_NO":999,"REV_AT_EPOCH":64660,"BSTAR":0.000046686,"MEAN_MOTION_DOT":0.00000345,"MEAN_MOTION_DDOT":0}]}
