WORLDVIEW-1 (WV-1)      
1 32060U 07041A   26199.86495825  .00003100  00000+0  12871-3 0  9992
2 32060  97.3907 319.1657 0001885 190.6952 169.4246 15.24581976 47702
WORLDVIEW-2 (WV-2)      
1 35946U 09055A   26199.82536079  .00000040  00000+0  27797-4 0  9992
2 35946  98.4754 272.8442 0005438 121.1463 239.0258 14.37907544880192
WORLDVIEW-3 (WV-3)      
1 40115U 14048A   26199.83559370  .00000345  00000+0  46686-4 0  9990
2 40115  97.8554 274.2301 0001573 150.4903 209.6401 14.85067225646602
